ONEWEB-0538             
1 56047U 23043B   24068.46549811 -.00000040  00000+0 -13875-3 0  9994
2 56047  87.9094  34.1091 0001645  76.9084 283.2230 13.16593258 49667
ONEWEB-0546             
1 56048U 23043C   24068.45283750  .00000069  00000+0  14791-3 0  9998
2 56048  87.9097  34.0734 0001915 110.9249 249.2087 13.16593708 49657
ONEWEB-0547             
1 56049U 23043D   24068.48056290  .00000013  00000+0  79620-7 0  9994
2 56049  87.9236  49.3149 0001389  81.6440 278.4851 13.21826838 48486
ONEWEB-0548             
1 56050U 23043E   24068.40217419  .00000032  00000+0  51118-4 0  9990
2 56050  87.9093  34.1280 0002552  80.6565 279.4854 13.16593088 49642
ONEWEB-0549             
1 56051U 23043F   24068.47267380  .00000020  00000+0  17078-4 0  9994
2 56051  87.9238  49.3164 0001886  80.2924 279.8423 13.21826515 48484
ONEWEB-0550             
1 56052U 23043G   24068.46006357  .00000025  00000+0  28911-4 0  9992
2 56052  87.9234  49.3304 0002098  81.1874 278.9498 13.21826805 48481
ONEWEB-0551             
1 56053U 23043H   24068.45710184  .00000020  00000+0  18864-4 0  9993
2 56053  87.8958  64.5603 0001801  80.4112 279.7222 13.15547683 47179
ONEWEB-0552             
1 56054U 23043J   24068.45377142 -.00003044  00000+0 -74078-2 0  9995
2 56054  87.9234  49.3416 0002020  78.0831 282.0530 13.21801064 48483
